<?xml version="1.0" encoding="UTF-8"?>
<ndm xmlns:xsi="http://www.w3.org/2001/XMLSchema-instance" xsi:noNamespaceSchemaLocation="https://sanaregistry.org/r/ndmxml_unqualified/ndmxml-2.0.0-master-2.0.xsd">
<omm id="CCSDS_OMM_VERS" version="2.0">
<header><CREATION_DATE/><ORIGINATOR/></header><body><segment><metadata><OBJECT_NAME>DELTA 2 R/B(1)</OBJECT_NAME><OBJECT_ID>1990-008B</OBJECT_ID><CENTER_NAME>EARTH</CENTER_NAME><REF_FRAME>TEME</REF_FRAME><TIME_SYSTEM>UTC</TIME_SYSTEM><MEAN_ELEMENT_THEORY>SGP4</MEAN_ELEMENT_THEORY></metadata><data><meanElements><EPOCH>2022-06-04T19:56:06.287712</EPOCH><MEAN_MOTION>14.89725640</MEAN_MOTION><ECCENTRICITY>.0265744</ECCENTRICITY><INCLINATION>35.6250</INCLINATION><RA_OF_ASC_NODE>338.1673</RA_OF_ASC_NODE><ARG_OF_PERICENTER>184.9593</ARG_OF_PERICENTER><MEAN_ANOMALY>174.8470</MEAN_ANOMALY></meanElements><tleParameters><EPHEMERIS_TYPE>0</EPHEMERIS_TYPE><CLASSIFICATION_TYPE>U</CLASSIFICATION_TYPE><NORAD_CAT_ID>20453</NORAD_CAT_ID><ELEMENT_SET_NO>999</ELEMENT_SET_NO><REV_AT_EPOCH>71802</REV_AT_EPOCH><BSTAR>.27232E-3</BSTAR><MEAN_MOTION_DOT>.52E-4</MEAN_MOTION_DOT><MEAN_MOTION_DDOT>0</MEAN_MOTION_DDOT></tleParameters></data></segment></body></omm>
<omm id="CCSDS_OMM_VERS" version="2.0">
<header><CREATION_DATE/><ORIGINATOR/></header><body><segment><metadata><OBJECT_NAME>COSMOS 2058</OBJECT_NAME><OBJECT_ID>1990-010A</OBJECT_ID><CENTER_NAME>EARTH</CENTER_NAME><REF_FRAME>TEME</REF_FRAME><TIME_SYSTEM>UTC</TIME_SYSTEM><MEAN_ELEMENT_THEORY>SGP4</MEAN_ELEMENT_THEORY></metadata><data><meanElements><EPOCH>2022-06-04T19:01:18.147360</EPOCH><MEAN_MOTION>14.98864664</MEAN_MOTION><ECCENTRICITY>.0013927</ECCENTRICITY><INCLINATION>82.4876</INCLINATION><RA_OF_ASC_NODE>302.7914</RA_OF_ASC_NODE><ARG_OF_PERICENTER>305.1194</ARG_OF_PERICENTER><MEAN_ANOMALY>54.8723</MEAN_ANOMALY></meanElements><tleParameters><EPHEMERIS_TYPE>0</EPHEMERIS_TYPE><CLASSIFICATION_TYPE>U</CLASSIFICATION_TYPE><NORAD_CAT_ID>20465</NORAD_CAT_ID><ELEMENT_SET_NO>999</ELEMENT_SET_NO><REV_AT_EPOCH>73573</REV_AT_EPOCH><BSTAR>.56633E-4</BSTAR><MEAN_MOTION_DOT>.711E-5</MEAN_MOTION_DOT><MEAN_MOTION_DDOT>0</MEAN_MOTION_DDOT></tleParameters></data></segment></body></omm>
<omm id="CCSDS_OMM_VERS" version="2.0">
<header><CREATION_DATE/><ORIGINATOR/></header><body><segment><metadata><OBJECT_NAME>SL-14 R/B</OBJECT_NAME><OBJECT_ID>1990-010B</OBJECT_ID><CENTER_NAME>EARTH</CENTER_NAME><REF_FRAME>TEME</REF_FRAME><TIME_SYSTEM>UTC</TIME_SYSTEM><MEAN_ELEMENT_THEORY>SGP4</MEAN_ELEMENT_THEORY></metadata><data><meanElements><EPOCH>2022-06-04T22:14:24.588672</EPOCH><MEAN_MOTION>14.81541625</MEAN_MOTION><ECCENTRICITY>.0021506</ECCENTRICITY><INCLINATION>82.5020</INCLINATION><RA_OF_ASC_NODE>115.2830</RA_OF_ASC_NODE><ARG_OF_PERICENTER>137.1033</ARG_OF_PERICENTER><MEAN_ANOMALY>223.1863</MEAN_ANOMALY></meanElements><tleParameters><EPHEMERIS_TYPE>0</EPHEMERIS_TYPE><CLASSIFICATION_TYPE>U</CLASSIFICATION_TYPE><NORAD_CAT_ID>20466</NORAD_CAT_ID><ELEMENT_SET_NO>999</ELEMENT_SET_NO><REV_AT_EPOCH>72495</REV_AT_EPOCH><BSTAR>.22157E-4</BSTAR><MEAN_MOTION_DOT>.198E-5</MEAN_MOTION_DOT><MEAN_MOTION_DDOT>0</MEAN_MOTION_DDOT></tleParameters></data></segment></body></omm>
<omm id="CCSDS_OMM_VERS" version="2.0">
<header><CREATION_DATE/><ORIGINATOR/></header><body><segment><metadata><OBJECT_NAME>SL-14 R/B</OBJECT_NAME><OBJECT_ID>1990-018B</OBJECT_ID><CENTER_NAME>EARTH</CENTER_NAME><REF_FRAME>TEME</REF_FRAME><TIME_SYSTEM>UTC</TIME_SYSTEM><MEAN_ELEMENT_THEORY>SGP4</MEAN_ELEMENT_THEORY></metadata><data><meanElements><EPOCH>2022-06-05T04:12:27.707616</EPOCH><MEAN_MOTION>14.80196594</MEAN_MOTION><ECCENTRICITY>.0015891</ECCENTRICITY><INCLINATION>82.5243</INCLINATION><RA_OF_ASC_NODE>64.6407</RA_OF_ASC_NODE><ARG_OF_PERICENTER>285.5539</ARG_OF_PERICENTER><MEAN_ANOMALY>230.2302</MEAN_ANOMALY></meanElements><tleParameters><EPHEMERIS_TYPE>0</EPHEMERIS_TYPE><CLASSIFICATION_TYPE>U</CLASSIFICATION_TYPE><NORAD_CAT_ID>20511</NORAD_CAT_ID><ELEMENT_SET_NO>999</ELEMENT_SET_NO><REV_AT_EPOCH>74037</REV_AT_EPOCH><BSTAR>.21052E-4</BSTAR><MEAN_MOTION_DOT>.183E-5</MEAN_MOTION_DOT><MEAN_MOTION_DDOT>0</MEAN_MOTION_DDOT></tleParameters></data></segment></body></omm>
<omm id="CCSDS_OMM_VERS" version="2.0">
<header><CREATION_DATE/><ORIGINATOR/></header><body><segment><metadata><OBJECT_NAME>HST</OBJECT_NAME><OBJECT_ID>1990-037B</OBJECT_ID><CENTER_NAME>EARTH</CENTER_NAME><REF_FRAME>TEME</REF_FRAME><TIME_SYSTEM>UTC</TIME_SYSTEM><MEAN_ELEMENT_THEORY>SGP4</MEAN_ELEMENT_THEORY></metadata><data><meanElements><EPOCH>2022-06-04T22:52:58.533600</EPOCH><MEAN_MOTION>15.10543114</MEAN_MOTION><ECCENTRICITY>.0002278</ECCENTRICITY><INCLINATION>28.4696</INCLINATION><RA_OF_ASC_NODE>251.6291</RA_OF_ASC_NODE><ARG_OF_PERICENTER>259.0416</ARG_OF_PERICENTER><MEAN_ANOMALY>253.0365</MEAN_ANOMALY></meanElements><tleParameters><EPHEMERIS_TYPE>0</EPHEMERIS_TYPE><CLASSIFICATION_TYPE>U</CLASSIFICATION_TYPE><NORAD_CAT_ID>20580</NORAD_CAT_ID><ELEMENT_SET_NO>999</ELEMENT_SET_NO><REV_AT_EPOCH>56459</REV_AT_EPOCH><BSTAR>.71272E-4</BSTAR><MEAN_MOTION_DOT>.1389E-4</MEAN_MOTION_DOT><MEAN_MOTION_DDOT>0</MEAN_MOTION_DDOT></tleParameters></data></segment></body></omm>
<omm id="CCSDS_OMM_VERS" version="2.0">
<header><CREATION_DATE/><ORIGINATOR/></header><body><segment><metadata><OBJECT_NAME>SL-16 R/B</OBJECT_NAME><OBJECT_ID>1990-046B</OBJECT_ID><CENTER_NAME>EARTH</CENTER_NAME><REF_FRAME>TEME</REF_FRAME><TIME_SYSTEM>UTC</TIME_SYSTEM><MEAN_ELEMENT_THEORY>SGP4</MEAN_ELEMENT_THEORY></metadata><data><meanElements><EPOCH>2022-06-04T16:56:49.231104</EPOCH><MEAN_MOTION>14.14697807</MEAN_MOTION><ECCENTRICITY>.0016175</ECCENTRICITY><INCLINATION>70.9999</INCLINATION><RA_OF_ASC_NODE>302.6789</RA_OF_ASC_NODE><ARG_OF_PERICENTER>237.8758</ARG_OF_PERICENTER><MEAN_ANOMALY>122.0795</MEAN_ANOMALY></meanElements><tleParameters><EPHEMERIS_TYPE>0</EPHEMERIS_TYPE><CLASSIFICATION_TYPE>U</CLASSIFICATION_TYPE><NORAD_CAT_ID>20625</NORAD_CAT_ID><ELEMENT_SET_NO>999</ELEMENT_SET_NO><REV_AT_EPOCH>65405</REV_AT_EPOCH><BSTAR>-.25626E-4</BSTAR><MEAN_MOTION_DOT>-.97E-6</MEAN_MOTION_DOT><MEAN_MOTION_DDOT>0</MEAN_MOTION_DDOT></tleParameters></data></segment></body></omm>
<omm id="CCSDS_OMM_VERS" version="2.0">
<header><CREATION_DATE/><ORIGINATOR/></header><body><segment><metadata><OBJECT_NAME>COSMOS 2084</OBJECT_NAME><OBJECT_ID>1990-055A</OBJECT_ID><CENTER_NAME>EARTH</CENTER_NAME><REF_FRAME>TEME</REF_FRAME><TIME_SYSTEM>UTC</TIME_SYSTEM><MEAN_ELEMENT_THEORY>SGP4</MEAN_ELEMENT_THEORY></metadata><data><meanElements><EPOCH>2022-06-04T20:22:23.928384</EPOCH><MEAN_MOTION>14.92852563</MEAN_MOTION><ECCENTRICITY>.0116102</ECCENTRICITY><INCLINATION>62.7925</INCLINATION><RA_OF_ASC_NODE>291.8681</RA_OF_ASC_NODE><ARG_OF_PERICENTER>48.6269</ARG_OF_PERICENTER><MEAN_ANOMALY>312.4738</MEAN_ANOMALY></meanElements><tleParameters><EPHEMERIS_TYPE>0</EPHEMERIS_TYPE><CLASSIFICATION_TYPE>U</CLASSIFICATION_TYPE><NORAD_CAT_ID>20663</NORAD_CAT_ID><ELEMENT_SET_NO>999</ELEMENT_SET_NO><REV_AT_EPOCH>73041</REV_AT_EPOCH><BSTAR>.66044E-4</BSTAR><MEAN_MOTION_DOT>.571E-5</MEAN_MOTION_DOT><MEAN_MOTION_DDOT>0</MEAN_MOTION_DDOT></tleParameters></data></segment></body></omm>
<omm id="CCSDS_OMM_VERS" version="2.0">
<header><CREATION_DATE/><ORIGINATOR/></header><body><segment><metadata><OBJECT_NAME>SL-6 R/B(2)</OBJECT_NAME><OBJECT_ID>1990-055D</OBJECT_ID><CENTER_NAME>EARTH</CENTER_NAME><REF_FRAME>TEME</REF_FRAME><TIME_SYSTEM>UTC</TIME_SYSTEM><MEAN_ELEMENT_THEORY>SGP4</MEAN_ELEMENT_THEORY></metadata><data><meanElements><EPOCH>2022-06-04T20:15:55.702080</EPOCH><MEAN_MOTION>14.93164388</MEAN_MOTION><ECCENTRICITY>.0129094</ECCENTRICITY><INCLINATION>62.7828</INCLINATION><RA_OF_ASC_NODE>206.4365</RA_OF_ASC_NODE><ARG_OF_PERICENTER>71.2060</ARG_OF_PERICENTER><MEAN_ANOMALY>290.2987</MEAN_ANOMALY></meanElements><tleParameters><EPHEMERIS_TYPE>0</EPHEMERIS_TYPE><CLASSIFICATION_TYPE>U</CLASSIFICATION_TYPE><NORAD_CAT_ID>20666</NORAD_CAT_ID><ELEMENT_SET_NO>999</ELEMENT_SET_NO><REV_AT_EPOCH>73237</REV_AT_EPOCH><BSTAR>.61659E-4</BSTAR><MEAN_MOTION_DOT>.543E-5</MEAN_MOTION_DOT><MEAN_MOTION_DDOT>0</MEAN_MOTION_DDOT></tleParameters></data></segment></body></omm>

</ndm>
