HST                     
1 20580U 90037B   22155.95345525  .00001389  00000+0  71272-4 0  9990
2 20580  28.4696 251.6291 0002278 259.0416 253.0365 15.10543114564592
DELTA 2 R/B(1)          
1 20453U 90008B   22155.83062833  .00005200  00000+0  27232-3 0  9994
2 20453  35.6250 338.1673 0265744 184.9593 174.8470 14.89725640718020
COSMOS 2058             
1 20465U 90010A   22155.79257115  .00000711  00000+0  56633-4 0  9994
2 20465  82.4876 302.7914 0013927 305.1194  54.8723 14.98864664735735
SL-14 R/B               
1 20466U 90010B   22155.92667348  .00000198  00000+0  22157-4 0  9996
2 20466  82.5020 115.2830 0021506 137.1033 223.1863 14.81541625724958
SL-14 R/B               
1 20511U 90018B   22156.17532069  .00000183  00000+0  21052-4 0  9991
2 20511  82.5243  64.6407 0015891 285.5539 230.2302 14.80196594740373
SL-16 R/B               
1 20625U 90046B   22155.70612536 -.00000097  00000+0 -25626-4 0  9991
2 20625  70.9999 302.6789 0016175 237.8758 122.0795 14.14697807654058
COSMOS 2084             
1 20663U 90055A   22155.84888806  .00000571  00000+0  66044-4 0  9997
2 20663  62.7925 291.8681 0116102  48.6269 312.4738 14.92852563730419
SL-6 R/B(2)             
1 20666U 90055D   22155.84439470  .00000543  00000+0  61659-4 0  9995
2 20666  62.7828 206.4365 0129094  71.2060 290.2987 14.93164388732378
